[{"OBJECT_NAME":"STARLINK-11275 [DTC]","OBJECT_ID":"2024-187F","EPOCH":"2026-03-09T21:06:18.089856","MEAN_MOTION":15.69723577,"ECCENTRICITY":0.00013934,"INCLINATION":53.1581,"RA_OF_ASC_NODE":295.0505,"ARG_OF_PERICENTER":149.1421,"MEAN_ANOMALY":210.9679,"EPHEMERIS_TYPE":0,"CLASSIFICATION_TYPE":"U","NORAD_CAT_ID":61579,"ELEMENT_SET_NO":999,"REV_AT_EPOCH":8073,"BSTAR":6.3644299e-5,"MEAN_MOTION_DOT":7.132e-5,"MEAN_MOTION_DDOT":0},{"OBJECT_NAME":"CZ-2D DEB","OBJECT_ID":"2005-024K","EPOCH":"2026-03-07T20:58:14.771712","MEAN_MOTION":15.70813446,"ECCENTRICITY":0.0005756,"INCLINATION":97.1809,"RA_OF_ASC_NODE":100.1703,"ARG_OF_PERICENTER":144.4044,"MEAN_ANOMALY":215.7604,"EPHEMERIS_TYPE":0,"CLASSIFICATION_TYPE":"U","NORAD_CAT_ID":35271,"ELEMENT_SET_NO":999,"REV_AT_EPOCH":8871,"BSTAR":0.00070506615,"MEAN_MOTION_DOT":0.00088213,"MEAN_MOTION_DDOT":0}]
